OBJECT C                
1 57582U 23117C   25193.17790429  .00005226  00000+0  20348-3 0  9994
2 57582  97.4442 267.9954 0008894  19.3261 340.8313 15.26395192106486
